ONEWEB-0668             
1 56711U 23068B   24281.22136103  .00000261  00000+0  64885-3 0  9996
2 56711  87.9150 351.8579 0001758  80.0112 280.1217 13.16594238 70463
ONEWEB-0676             
1 56712U 23068C   24281.50554806  .00000303  00000+0  75965-3 0  9990
2 56712  87.9156 351.8156 0001692 118.2123 241.9179 13.16598759 70424
ONEWEB-0677             
1 56713U 23068D   24281.61738473  .00000091  00000+0  19211-3 0  9993
2 56713  87.9267  37.3021 0001378 100.5465 259.5823 13.20774031 68285
ONEWEB-0678             
1 56714U 23068E   24281.57447049 -.00000230  00000+0 -64606-3 0  9990
2 56714  87.9128  22.0841 0002093 106.6262 253.5098 13.15548378 68083
ONEWEB-0679             
1 56715U 23068F   24281.47467701  .00000202  00000+0  49490-3 0  9998
2 56715  87.9155 351.8217 0001155  92.0157 268.1107 13.16595115 70441
ONEWEB-0680             
1 56716U 23068G   24281.26318417  .00000265  00000+0  60906-3 0  9999
2 56716  87.9369   7.0748 0001579  75.0961 285.0348 13.21827338 69468
ONEWEB-0681             
1 56717U 23068H   24281.27343627  .00000126  00000+0  27340-3 0  9993
2 56717  87.9368   7.0512 0001272 137.0074 223.1160 13.21827593 69458
ONEWEB-0682             
1 56718U 23068J   24281.52457142  .00000105  00000+0  24524-3 0  9998
2 56718  87.9124  22.1325 0001371  83.2930 276.8357 13.15550902 68241
